NORAD_CAT_ID,OBJECT_NAME,OBJECT_TYPE,EPOCH,MEAN_MOTION,ECCENTRICITY,INCLINATION,RA_OF_ASC_NODE,ARG_OF_PERICENTER,MEAN_ANOMALY,BSTAR,MEAN_MOTION_DOT,MEAN_MOTION_DDOT,TLE_LINE0,TLE_LINE1,TLE_LINE2,SEMIMAJOR_AXIS,PERIOD,APOGEE,PERIGEE,DECAYED
52670.0,STARLINK-4075,PAYLOAD,2023-06-24 07:22:43,15.08840184,0.0001373,53.2163,275.6989,93.3469,266.768,9.2175e-05,1.179e-05,0.0,0 STARLINK-4075,1 52670U 22053Q   23175.30744527  .00001179  00000-0  92175-4 0  9998,2 52670  53.2163 275.6989 0001373  93.3469 266.7680 15.08840184 61254,6917.88,95.438,540.695,538.795,0.0
52670.0,STARLINK-4075,PAYLOAD,2023-06-25 16:45:48,15.08851293,0.0001113,53.2165,269.4548,92.181,267.931,0.00019046,2.746e-05,0.0,0 STARLINK-4075,1 52670U 22053Q   23176.69848014  .00002746  00000-0  19046-3 0  9993,2 52670  53.2165 269.4548 0001113  92.1810 267.9310 15.08851293 61466,6917.846,95.437,540.481,538.941,0.0
52670.0,STARLINK-4075,PAYLOAD,2023-06-25 23:07:21,15.08835119,0.0001195,53.215,268.2614,83.9223,276.1906,-1.682e-05,-5.55e-06,0.0,0 STARLINK-4075,1 52670U 22053Q   23176.96344772 -.00000555  00000-0 -16820-4 0  9991,2 52670  53.2150 268.2614 0001195  83.9223 276.1906 15.08835119 61504,6917.895,95.438,540.587,538.934,0.0
52670.0,STARLINK-4075,PAYLOAD,2023-06-27 11:41:14,15.08842877,0.0001052,53.2153,261.4251,95.9544,264.1568,0.00023044,3.382e-05,0.0,0 STARLINK-4075,1 52670U 22053Q   23178.48697103  .00003382  00000-0  23044-3 0  9993,2 52670  53.2153 261.4251 0001052  95.9544 264.1568 15.08842877 61735,6917.872,95.437,540.464,539.009,0.0
52670.0,STARLINK-4075,PAYLOAD,2023-06-28 05:10:29,15.08838955,0.0001286,53.2167,258.154,87.4624,272.6516,0.00018457,2.651e-05,0.0,0 STARLINK-4075,1 52670U 22053Q   23179.21561525  .00002651  00000-0  18457-3 0  9993,2 52670  53.2167 258.1540 0001286  87.4624 272.6516 15.08838955 61849,6917.884,95.438,540.638,538.859,0.0
52670.0,STARLINK-4075,PAYLOAD,2023-06-29 11:22:48,15.08848286,0.000102,53.2161,252.503,88.4689,271.642,0.00020999,3.057e-05,0.0,0 STARLINK-4075,1 52670U 22053Q   23180.47417042  .00003057  00000-0  20999-3 0  9992,2 52670  53.2161 252.5030 0001020  88.4689 271.6420 15.08848286 62036,6917.855,95.437,540.426,539.014,0.0
52670.0,STARLINK-4075,PAYLOAD,2023-06-30 11:13:35,15.08845401,0.0001067,53.216,248.0419,87.4168,272.6946,0.00012196,1.654e-05,0.0,0 STARLINK-4075,1 52670U 22053Q   23181.46776942  .00001654  00000-0  12196-3 0  9990,2 52670  53.2160 248.0419 0001067  87.4168 272.6946 15.08845401 62184,6917.864,95.437,540.467,538.991,0.0
52670.0,STARLINK-4075,PAYLOAD,2023-07-01 09:28:59,15.08836862,0.0001068,53.2164,243.8794,90.2147,269.8968,-4.7518e-06,-3.63e-06,0.0,0 STARLINK-4075,1 52670U 22053Q   23182.39513349 -.00000363  00000-0 -47518-5 0  9999,2 52670  53.2164 243.8794 0001068  90.2147 269.8968 15.08836862 62326,6917.89,95.438,540.494,539.016,0.0
52670.0,STARLINK-4075,PAYLOAD,2023-07-02 10:55:09,15.08836517,0.0001062,53.2157,239.1229,85.5171,274.5943,0.00025028,3.697e-05,0.0,0 STARLINK-4075,1 52670U 22053Q   23183.45497621  .00003697  00000-0  25028-3 0  9992,2 52670  53.2157 239.1229 0001062  85.5171 274.5943 15.08836517 62487,6917.891,95.438,540.491,539.021,0.0
52670.0,STARLINK-4075,PAYLOAD,2023-07-03 12:21:19,15.0884445,0.0001035,53.2154,234.3652,88.8728,271.2383,0.0001783,2.551e-05,0.0,0 STARLINK-4075,1 52670U 22053Q   23184.51481310  .00002551  00000-0  17830-3 0  9998,2 52670  53.2154 234.3652 0001035  88.8728 271.2383 15.08844450 62640,6917.867,95.437,540.448,539.016,0.0
52670.0,STARLINK-4075,PAYLOAD,2023-07-03 20:18:15,15.08836923,9.98e-05,53.2152,232.8785,90.4073,269.7033,0.00014789,2.066e-05,0.0,0 STARLINK-4075,1 52670U 22053Q   23184.84601706  .00002066  00000-0  14789-3 0  9998,2 52670  53.2152 232.8785 0000998  90.4073 269.7033 15.08836923 62692,6917.89,95.438,540.445,539.064,0.0
52670.0,STARLINK-4075,PAYLOAD,2023-07-05 08:52:08,15.08839786,0.0001077,53.2162,226.0383,90.2223,269.8893,5.9539e-05,6.6e-06,0.0,0 STARLINK-4075,1 52670U 22053Q   23186.36953921  .00000660  00000-0  59539-4 0  9997,2 52670  53.2162 226.0383 0001077  90.2223 269.8893 15.08839786 62927,6917.881,95.438,540.491,539.001,0.0
52670.0,STARLINK-4075,PAYLOAD,2023-07-06 11:53:41,15.08843693,0.0001055,53.2161,220.9835,85.3042,274.807,0.00010643,1.407e-05,0.0,0 STARLINK-4075,1 52670U 22053Q   23187.49561629  .00001407  00000-0  10643-3 0  9994,2 52670  53.2161 220.9835 0001055  85.3042 274.8070 15.08843693 63095,6917.869,95.437,540.464,539.004,0.0
52670.0,STARLINK-4075,PAYLOAD,2023-07-08 02:02:56,15.08841251,0.000108,53.2162,213.8463,86.5766,273.535,5.2791e-05,5.53e-06,0.0,0 STARLINK-4075,1 52670U 22053Q   23189.08537799  .00000553  00000-0  52791-4 0  9994,2 52670  53.2162 213.8463 0001080  86.5766 273.5350 15.08841251 63330,6917.877,95.437,540.489,538.994,0.0
52670.0,STARLINK-4075,PAYLOAD,2023-07-09 08:15:16,15.08839771,0.0001054,53.2162,208.1965,87.1942,272.917,2.5112e-05,1.12e-06,0.0,0 STARLINK-4075,1 52670U 22053Q   23190.34393953  .00000112  00000-0  25112-4 0  9995,2 52670  53.2162 208.1965 0001054  87.1942 272.9170 15.08839771 63526,6917.881,95.438,540.475,539.017,0.0
52670.0,STARLINK-4075,PAYLOAD,2023-07-10 11:16:49,15.08837156,0.0001029,53.2161,203.1415,85.1382,274.9728,6.2621e-05,7.09e-06,0.0,0 STARLINK-4075,1 52670U 22053Q   23191.47002168  .00000709  00000-0  62621-4 0  9993,2 52670  53.2161 203.1415 0001029  85.1382 274.9728 15.08837156 63692,6917.889,95.438,540.466,539.042,0.0
52670.0,STARLINK-4075,PAYLOAD,2023-07-12 03:01:28,15.08839442,0.0001027,53.2163,195.7071,85.7902,274.3207,5.6172e-05,6.06e-06,0.0,0 STARLINK-4075,1 52670U 22053Q   23193.12602309  .00000606  00000-0  56172-4 0  9990,2 52670  53.2163 195.7071 0001027  85.7902 274.3207 15.08839442 63944,6917.882,95.438,540.458,539.037,0.0
52670.0,STARLINK-4075,PAYLOAD,2023-07-13 17:10:43,15.08835894,0.0001079,53.216,188.5698,85.7655,274.3461,8.1833e-06,-1.58e-06,0.0,0 STARLINK-4075,1 52670U 22053Q   23194.71578681 -.00000158  00000-0  81833-5 0  9997,2 52670  53.2160 188.5698 0001079  85.7655 274.3461 15.08835894 64184,6917.893,95.438,540.504,539.011,0.0
52670.0,STARLINK-4075,PAYLOAD,2023-07-15 02:33:49,15.08844343,0.0001107,53.2158,182.3252,84.8527,275.2591,7.5498e-05,9.14e-06,0.0,0 STARLINK-4075,1 52670U 22053Q   23196.10682108  .00000914  00000-0  75498-4 0  9990,2 52670  53.2158 182.3252 0001107  84.8527 275.2591 15.08844343 64395,6917.867,95.437,540.498,538.966,0.0
52670.0,STARLINK-4075,PAYLOAD,2023-07-16 05:35:23,15.0882873,0.0001131,53.2165,177.2701,83.7997,276.3124,0.00013327,1.833e-05,0.0,0 STARLINK-4075,1 52670U 22053Q   23197.23291107  .00001833  00000-0  13327-3 0  9993,2 52670  53.2165 177.2701 0001131  83.7997 276.3124 15.08828730 64566,6917.915,95.438,540.562,538.997,0.0
52670.0,STARLINK-4075,PAYLOAD,2023-07-17 14:58:29,15.08840918,0.000113,53.2162,171.0261,81.539,278.5731,-8.5119e-06,-4.23e-06,0.0,0 STARLINK-4075,1 52670U 22053Q   23198.62394823 -.00000423  00000-0 -85119-5 0  9992,2 52670  53.2162 171.0261 0001130  81.5390 278.5731 15.08840918 64771,6917.878,95.437,540.524,538.961,0.0
52670.0,STARLINK-4075,PAYLOAD,2023-07-19 01:56:58,15.08832275,0.0001215,53.2166,164.4843,91.941,268.1721,2.958e-05,1.83e-06,0.0,0 STARLINK-4075,1 52670U 22053Q   23200.08123616  .00000183  00000-0  29580-4 0  9996,2 52670  53.2166 164.4843 0001215  91.9410 268.1721 15.08832275 64994,6917.904,95.438,540.61,538.928,0.0
52670.0,STARLINK-4075,PAYLOAD,2023-07-19 09:53:54,15.08839642,0.0001255,53.2174,162.9968,86.6288,273.4848,5.6369e-05,6.09e-06,0.0,0 STARLINK-4075,1 52670U 22053Q   23200.41243146  .00000609  00000-0  56369-4 0  9992,2 52670  53.2174 162.9968 0001255  86.6288 273.4848 15.08839642 65043,6917.881,95.438,540.615,538.878,0.0
52670.0,STARLINK-4075,PAYLOAD,2023-07-21 00:03:09,15.08829184,0.0001221,53.2169,155.8602,91.7277,268.3855,0.00020022,2.899e-05,0.0,0 STARLINK-4075,1 52670U 22053Q   23202.00219474  .00002899  00000-0  20022-3 0  9995,2 52670  53.2169 155.8602 0001221  91.7277 268.3855 15.08829184 65288,6917.913,95.438,540.623,538.934,0.0
52670.0,STARLINK-4075,PAYLOAD,2023-07-21 01:38:32,15.08841882,0.0001254,53.2168,155.563,98.1562,261.9572,5.1822e-05,5.37e-06,0.0,0 STARLINK-4075,1 52670U 22053Q   23202.06843249  .00000537  00000-0  51822-4 0  9994,2 52670  53.2168 155.5630 0001254  98.1562 261.9572 15.08841882 65294,6917.875,95.437,540.607,538.872,0.0
52670.0,STARLINK-4075,PAYLOAD,2023-07-24 05:57:03,15.08839647,0.0001183,53.2167,141.2897,94.0644,266.0483,-2.3996e-05,-6.7e-06,0.0,0 STARLINK-4075,1 52670U 22053Q   23205.24795629 -.00000670  00000-0 -23996-4 0  9996,2 52670  53.2167 141.2897 0001183  94.0644 266.0483 15.08839647 66202,6917.881,95.438,540.565,538.928,0.0
52670.0,STARLINK-4075,PAYLOAD,2023-07-25 05:47:50,15.0883628,0.000146,53.2175,136.827,109.0953,251.0197,5.5048e-05,5.88e-06,0.0,0 STARLINK-4075,1 52670U 22053Q   23206.24155882  .00000588  00000-0  55048-4 0  9997,2 52670  53.2175 136.8270 0001460 109.0953 251.0197 15.08836280 66356,6917.892,95.438,540.767,538.747,0.0
52670.0,STARLINK-4075,PAYLOAD,2023-07-26 05:38:38,15.08828817,0.0001651,53.219,132.3676,113.9054,246.2111,0.00021927,3.202e-05,0.0,0 STARLINK-4075,1 52670U 22053Q   23207.23516228  .00003202  00000-0  21927-3 0  9996,2 52670  53.2190 132.3676 0001651 113.9054 246.2111 15.08828817 66508,6917.915,95.438,540.922,538.637,0.0
52670.0,STARLINK-4075,PAYLOAD,2023-07-27 00:43:14,15.08847058,7.79e-05,53.2161,128.802,92.9428,267.1654,0.00011117,1.482e-05,0.0,0 STARLINK-4075,1 52670U 22053Q   23208.03003224  .00001482  00000-0  11117-3 0  9990,2 52670  53.2161 128.8020 0000779  92.9428 267.1654 15.08847058 66197,6917.859,95.437,540.263,539.185,0.0
52670.0,STARLINK-4075,PAYLOAD,2023-07-28 00:34:03,15.08829755,0.0001267,53.2181,124.34,103.9979,256.1154,-6.2779e-05,-1.287e-05,0.0,0 STARLINK-4075,1 52670U 22053Q   23209.02365287 -.00001287  00000-0 -62779-4 0  9996,2 52670  53.2181 124.3400 0001267 103.9979 256.1154 15.08829755 66343,6917.912,95.438,540.653,538.9,0.0
